{"fetched_at":"2026-07-17T17:38:17.461Z","source":"https://celestrak.org/NORAD/elements/gp.php?NAME=HAWK&FORMAT=JSON","constellation":"hawkeye-360","records":[{"OBJECT_NAME":"HAWK-A","OBJECT_ID":"2018-099H","EPOCH":"2026-07-17T01:49:01.280064","CLASSIFICATION_TYPE":"U","MEAN_MOTION":15.24979113,"ECCENTRICITY":0.00349345,"INCLINATION":97.3893,"RA_OF_ASC_NODE":249.9255,"ARG_OF_PERICENTER":177.4083,"MEAN_ANOMALY":182.7343,"EPHEMERIS_TYPE":0,"NORAD_CAT_ID":43765,"ELEMENT_SET_NO":999,"REV_AT_EPOCH":41765,"BSTAR":0.00015257672,"MEAN_MOTION_DOT":0.00003796,"MEAN_MOTION_DDOT":0},{"OBJECT_NAME":"HAWK-B","OBJECT_ID":"2018-099AN","EPOCH":"2026-07-17T03:11:44.985984","CLASSIFICATION_TYPE":"U","MEAN_MOTION":15.23128342,"ECCENTRICITY":0.00315773,"INCLINATION":97.3942,"RA_OF_ASC_NODE":249.3342,"ARG_OF_PERICENTER":195.2137,"MEAN_ANOMALY":164.8153,"EPHEMERIS_TYPE":0,"NORAD_CAT_ID":43794,"ELEMENT_SET_NO":999,"REV_AT_EPOCH":41759,"BSTAR":0.00013853099,"MEAN_MOTION_DOT":0.00003241,"MEAN_MOTION_DDOT":0},{"OBJECT_NAME":"HAWK-C","OBJECT_ID":"2018-099AT","EPOCH":"2026-07-17T07:28:17.687712","CLASSIFICATION_TYPE":"U","MEAN_MOTION":15.28510433,"ECCENTRICITY":0.00405216,"INCLINATION":97.387,"RA_OF_ASC_NODE":251.2204,"ARG_OF_PERICENTER":176.3586,"MEAN_ANOMALY":183.7957,"EPHEMERIS_TYPE":0,"NORAD_CAT_ID":43799,"ELEMENT_SET_NO":999,"REV_AT_EPOCH":41851,"BSTAR":0.00016371372,"MEAN_MOTION_DOT":0.00004575,"MEAN_MOTION_DDOT":0},{"OBJECT_NAME":"HAWK-2C","OBJECT_ID":"2021-006CT","EPOCH":"2026-07-17T04:58:45.519456","CLASSIFICATION_TYPE":"U","MEAN_MOTION":15.35003779,"ECCENTRICITY":0.00086765,"INCLINATION":97.2261,"RA_OF_ASC_NODE":241.9227,"ARG_OF_PERICENTER":95.195,"MEAN_ANOMALY":265.0284,"EPHEMERIS_TYPE":0,"NORAD_CAT_ID":47502,"ELEMENT_SET_NO":999,"REV_AT_EPOCH":30410,"BSTAR":0.0001050189,"MEAN_MOTION_DOT":0.00003491,"MEAN_MOTION_DDOT":0},{"OBJECT_NAME":"HAWK-2A","OBJECT_ID":"2021-006CW","EPOCH":"2026-07-17T05:01:55.213248","CLASSIFICATION_TYPE":"U","MEAN_MOTION":15.35025818,"ECCENTRICITY":0.00082255,"INCLINATION":97.2301,"RA_OF_ASC_NODE":242.62,"ARG_OF_PERICENTER":98.5451,"MEAN_ANOMALY":261.6725,"EPHEMERIS_TYPE":0,"NORAD_CAT_ID":47505,"ELEMENT_SET_NO":999,"REV_AT_EPOCH":30410,"BSTAR":0.00012515194,"MEAN_MOTION_DOT":0.00004178,"MEAN_MOTION_DDOT":0},{"OBJECT_NAME":"HAWK-2B","OBJECT_ID":"2021-006CZ","EPOCH":"2026-07-17T01:44:37.715136","CLASSIFICATION_TYPE":"U","MEAN_MOTION":15.35152493,"ECCENTRICITY":0.00087631,"INCLINATION":97.2173,"RA_OF_ASC_NODE":240.7705,"ARG_OF_PERICENTER":97.1141,"MEAN_ANOMALY":263.1099,"EPHEMERIS_TYPE":0,"NORAD_CAT_ID":47508,"ELEMENT_SET_NO":999,"REV_AT_EPOCH":30408,"BSTAR":0.00012754589,"MEAN_MOTION_DOT":0.00004278,"MEAN_MOTION_DDOT":0},{"OBJECT_NAME":"HAWK-3B","OBJECT_ID":"2021-059BE","EPOCH":"2026-07-16T12:01:03.159264","CLASSIFICATION_TYPE":"U","MEAN_MOTION":15.71948524,"ECCENTRICITY":0.0004634,"INCLINATION":97.6631,"RA_OF_ASC_NODE":37.0342,"ARG_OF_PERICENTER":193.444,"MEAN_ANOMALY":166.67,"EPHEMERIS_TYPE":0,"NORAD_CAT_ID":48931,"ELEMENT_SET_NO":999,"REV_AT_EPOCH":28245,"BSTAR":0.00023387,"MEAN_MOTION_DOT":0.00030374,"MEAN_MOTION_DDOT":0},{"OBJECT_NAME":"HAWK-3C","OBJECT_ID":"2021-059BX","EPOCH":"2026-07-17T00:13:55.449984","CLASSIFICATION_TYPE":"U","MEAN_MOTION":15.71982005,"ECCENTRICITY":0.00049532,"INCLINATION":97.6748,"RA_OF_ASC_NODE":43.3297,"ARG_OF_PERICENTER":192.2303,"MEAN_ANOMALY":167.884,"EPHEMERIS_TYPE":0,"NORAD_CAT_ID":48948,"ELEMENT_SET_NO":999,"REV_AT_EPOCH":28253,"BSTAR":0.00022741832,"MEAN_MOTION_DOT":0.00029575,"MEAN_MOTION_DDOT":0},{"OBJECT_NAME":"HAWK-3A","OBJECT_ID":"2021-059CG","EPOCH":"2026-07-16T13:32:06.051552","CLASSIFICATION_TYPE":"U","MEAN_MOTION":15.71953796,"ECCENTRICITY":0.00048195,"INCLINATION":97.6691,"RA_OF_ASC_NODE":40.0209,"ARG_OF_PERICENTER":195.861,"MEAN_ANOMALY":164.2502,"EPHEMERIS_TYPE":0,"NORAD_CAT_ID":48957,"ELEMENT_SET_NO":999,"REV_AT_EPOCH":28246,"BSTAR":0.00022989456,"MEAN_MOTION_DOT":0.00029863,"MEAN_MOTION_DDOT":0},{"OBJECT_NAME":"HAWK-5C","OBJECT_ID":"2022-057Y","EPOCH":"2026-07-16T23:05:50.521056","CLASSIFICATION_TYPE":"U","MEAN_MOTION":15.52364438,"ECCENTRICITY":0.00026359,"INCLINATION":97.6621,"RA_OF_ASC_NODE":359.5768,"ARG_OF_PERICENTER":338.6084,"MEAN_ANOMALY":21.5057,"EPHEMERIS_TYPE":0,"NORAD_CAT_ID":52754,"ELEMENT_SET_NO":999,"REV_AT_EPOCH":23096,"BSTAR":0.00016913689,"MEAN_MOTION_DOT":0.00010205,"MEAN_MOTION_DDOT":0},{"OBJECT_NAME":"HAWK-5B","OBJECT_ID":"2022-057AA","EPOCH":"2026-07-17T03:44:02.955264","CLASSIFICATION_TYPE":"U","MEAN_MOTION":15.52365681,"ECCENTRICITY":0.0003308,"INCLINATION":97.6636,"RA_OF_ASC_NODE":358.1368,"ARG_OF_PERICENTER":323.0148,"MEAN_ANOMALY":37.0875,"EPHEMERIS_TYPE":0,"NORAD_CAT_ID":52756,"ELEMENT_SET_NO":999,"REV_AT_EPOCH":23099,"BSTAR":0.00017707805,"MEAN_MOTION_DOT":0.0001069,"MEAN_MOTION_DDOT":0},{"OBJECT_NAME":"HAWK-5A","OBJECT_ID":"2022-057AB","EPOCH":"2026-07-16T23:05:17.754720","CLASSIFICATION_TYPE":"U","MEAN_MOTION":15.52363268,"ECCENTRICITY":0.00031955,"INCLINATION":97.663,"RA_OF_ASC_NODE":358.7605,"ARG_OF_PERICENTER":330.0631,"MEAN_ANOMALY":30.0438,"EPHEMERIS_TYPE":0,"NORAD_CAT_ID":52757,"ELEMENT_SET_NO":999,"REV_AT_EPOCH":23096,"BSTAR":0.000172099,"MEAN_MOTION_DOT":0.00010385,"MEAN_MOTION_DDOT":0},{"OBJECT_NAME":"HAWK-6B","OBJECT_ID":"2023-011A","EPOCH":"2026-07-17T06:43:14.333664","CLASSIFICATION_TYPE":"U","MEAN_MOTION":15.2316545,"ECCENTRICITY":0.00044084,"INCLINATION":40.4975,"RA_OF_ASC_NODE":176.5147,"ARG_OF_PERICENTER":251.1404,"MEAN_ANOMALY":108.8927,"EPHEMERIS_TYPE":0,"NORAD_CAT_ID":55324,"ELEMENT_SET_NO":999,"REV_AT_EPOCH":19243,"BSTAR":0.00011291617,"MEAN_MOTION_DOT":0.00002529,"MEAN_MOTION_DDOT":0},{"OBJECT_NAME":"HAWK-6C","OBJECT_ID":"2023-011C","EPOCH":"2026-07-17T05:07:54.792768","CLASSIFICATION_TYPE":"U","MEAN_MOTION":15.23165002,"ECCENTRICITY":0.00049207,"INCLINATION":40.4965,"RA_OF_ASC_NODE":173.7366,"ARG_OF_PERICENTER":244.6978,"MEAN_ANOMALY":115.3322,"EPHEMERIS_TYPE":0,"NORAD_CAT_ID":55326,"ELEMENT_SET_NO":999,"REV_AT_EPOCH":19243,"BSTAR":0.00010017758,"MEAN_MOTION_DOT":0.00002221,"MEAN_MOTION_DDOT":0},{"OBJECT_NAME":"HAWK-6A","OBJECT_ID":"2023-011D","EPOCH":"2026-07-17T06:42:22.960224","CLASSIFICATION_TYPE":"U","MEAN_MOTION":15.23165302,"ECCENTRICITY":0.00045286,"INCLINATION":40.4975,"RA_OF_ASC_NODE":174.9807,"ARG_OF_PERICENTER":242.0934,"MEAN_ANOMALY":117.9417,"EPHEMERIS_TYPE":0,"NORAD_CAT_ID":55327,"ELEMENT_SET_NO":999,"REV_AT_EPOCH":19244,"BSTAR":0.00010527257,"MEAN_MOTION_DOT":0.00002344,"MEAN_MOTION_DDOT":0},{"OBJECT_NAME":"HAWK-7A","OBJECT_ID":"2023-054P","EPOCH":"2026-07-17T02:42:55.220832","CLASSIFICATION_TYPE":"U","MEAN_MOTION":15.2764435,"ECCENTRICITY":0.00012326,"INCLINATION":97.2658,"RA_OF_ASC_NODE":84.6895,"ARG_OF_PERICENTER":321.9127,"MEAN_ANOMALY":38.2026,"EPHEMERIS_TYPE":0,"NORAD_CAT_ID":56191,"ELEMENT_SET_NO":999,"REV_AT_EPOCH":18159,"BSTAR":0.00011158353,"MEAN_MOTION_DOT":0.00002943,"MEAN_MOTION_DDOT":0}]}
